STARLETTE               
1 07646U 75010A   12289.56178817 -.00000168  00000-0 -18162-4 0   586
2 07646  49.8257  10.2165 0206084 130.6907 231.2097 13.82281793903933
LAGEOS 1                
1 08820U 76039A   12288.85124862  .00000026  00000-0  10000-3 0  3660
2 08820 109.8434 268.8335 0045158 291.6050  67.9737  6.38664831594675
AJISAI (EGS)            
1 16908U 86061A   12289.90272379 -.00000083  00000-0  10000-3 0  9497
2 16908  50.0107  17.9589 0011485  75.6685 284.5423 12.44470756859105
LAGEOS 2                
1 22195U 92070B   12289.06397075 -.00000009  00000-0  10000-3 0  5884
2 22195  52.6467 182.4118 0137443 163.9977 196.4980  6.47294322472380
STELLA                  
1 22824U 93061B   12290.08465532  .00001196  00000-0  50649-3 0  2979
2 22824  98.6115 226.5048 0005958 351.3877   8.7372 14.27313807992775
WESTPAC                 
1 25398U 98043E   12289.96044721  .00000009  00000-0  22550-4 0  5269
2 25398  98.3865 261.3373 0000283 285.6575  74.4593 14.22720124741025
GRACE-1                 
1 27391U 02012A   12289.80880915  .00008698  00000-0  21215-3 0  2132
2 27391  89.0250 199.4914 0016702  50.9448 309.3366 15.40593133592078
GRACE-2                 
1 27392U 02012B   12289.80841196  .00007577  00000-0  18465-3 0  2140
2 27392  89.0224 199.5173 0017333  51.3928 308.8968 15.40590325592079
GOCE                    
1 34602U 09013A   12290.23161464  .00002938  19079-5  40115-5 0  1642
2 34602  96.5908 312.6082 0007817  65.0952 295.1145 16.09141363209941
LARES                   
1 38077U 12006A   12290.05681966 -.00000022  00000-0  10000-3 0  6625
2 38077  69.4917 179.2651 0006797  71.0385 289.1377 12.54929946 30839
